{"type": "FeatureCollection", "features": [ {"type": "Feature", "properties": {"norad_id": 31538, "name": "FENGYUN 1C DEB", "group": "fengyun-1c-debris", "lat": 48.6486485674568, "lon": 41.91282475787242, "alt_km": 579.6136345343757, "timestamp": "2025-12-09T21:34:11.690986+00:00", "meta": {"OBJECT_NAME": "FENGYUN 1C DEB", "OBJECT_ID": "1999-025BYD", "EPOCH": "2025-11-18T21:37:36.814656", "MEAN_MOTION": 14.96885168, "ECCENTRICITY": 0.00235351, "INCLINATION": 98.2479, "RA_OF_ASC_NODE": 190.2519, "ARG_OF_PERICENTER": 356.6213, "MEAN_ANOMALY": 3.4844, "EPHEMERIS_TYPE": 0, "CLASSIFICATION_TYPE": "U", "NORAD_CAT_ID": 31538, "ELEMENT_SET_NO": 999, "REV_AT_EPOCH": 66646, "BSTAR": 0.0047226763, "MEAN_MOTION_DOT": 0.00054817, "MEAN_MOTION_DDOT": 0}, "tle": {"line1": "1 31538U 99025BYD 25322.90112054  .00054817  00000+0  47227-2 0  9999", "line2": "2 31538  98.2479 190.2519 0023535 356.6213   3.4844 14.96885168666469"}}, "geometry": {"type": "Point", "coordinates": [41.91282475787242, 48.6486485674568]}}, {"type": "Feature", "properties": {"norad_id": 31540, "name": "FENGYUN 1C DEB", "group": "fengyun-1c-debris", "lat": -73.03419498862665, "lon": -68.48770555052116, "alt_km": 608.8964557769732, "timestamp": "2025-12-09T21:34:11.690996+00:00", "meta": {"OBJECT_NAME": "FENGYUN 1C DEB", "OBJECT_ID": "1999-025BYF", "EPOCH": "2025-12-09T05:38:36.929760", "MEAN_MOTION": 14.65331731, "ECCENTRICITY": 0.0177015, "INCLINATION": 99.0575, "RA_OF_ASC_NODE": 142.307, "ARG_OF_PERICENTER": 311.8781, "MEAN_ANOMALY": 46.743, "EPHEMERIS_TYPE": 0, "CLASSIFICATION_TYPE": "U", "NORAD_CAT_ID": 31540, "ELEMENT_SET_NO": 999, "REV_AT_EPOCH": 98250, "BSTAR": 0.0011276, "MEAN_MOTION_DOT": 7.611e-05, "MEAN_MOTION_DDOT": 0}, "tle": {"line1": "1 31540U 99025BYF 25343.23514965  .00007611  00000+0  11276-2 0  9993", "line2": "2 31540  99.0575 142.3070 0177015 311.8781  46.7430 14.65331731982509"}}, "geometry": {"type": "Point", "coordinates": [-68.48770555052116, -73.03419498862665]}}, {"type": "Feature", "properties": {"norad_id": 31541, "name": "FENGYUN 1C DEB", "group": "fengyun-1c-debris", "lat": 35.019857687695186, "lon": -47.61517216735566, "alt_km": 676.2539655666806, "timestamp": "2025-12-09T21:34:11.691009+00:00", "meta": {"OBJECT_NAME": "FENGYUN 1C DEB", "OBJECT_ID": "1999-025BYG", "EPOCH": "2025-12-08T20:22:53.743296", "MEAN_MOTION": 14.68723026, "ECCENTRICITY": 0.0078443, "INCLINATION": 98.9795, "RA_OF_ASC_NODE": 124.8716, "ARG_OF_PERICENTER": 252.2346, "MEAN_ANOMALY": 107.0285, "EPHEMERIS_TYPE": 0, "CLASSIFICATION_TYPE": "U", "NORAD_CAT_ID": 31541, "ELEMENT_SET_NO": 999, "REV_AT_EPOCH": 98366, "BSTAR": 0.0016888, "MEAN_MOTION_DOT": 0.0001026, "MEAN_MOTION_DDOT": 0}, "tle": {"line1": "1 31541U 99025BYG 25342.84923314  .00010260  00000+0  16888-2 0  9990", "line2": "2 31541  98.9795 124.8716 0078443 252.2346 107.0285 14.68723026983666"}}, "geometry": {"type": "Point", "coordinates": [-47.61517216735566, 35.019857687695186]}}, {"type": "Feature", "properties": {"norad_id": 31542, "name": "FENGYUN 1C DEB", "group": "fengyun-1c-debris", "lat": 50.4811920645027, "lon": -131.33352333451782, "alt_km": 808.9915410358844, "timestamp": "2025-12-09T21:34:11.691021+00:00", "meta": {"OBJECT_NAME": "FENGYUN 1C DEB", "OBJECT_ID": "1999-025BYH", "EPOCH": "2025-12-08T14:34:57.942048", "MEAN_MOTION": 14.22760731, "ECCENTRICITY": 0.00472884, "INCLINATION": 98.7313, "RA_OF_ASC_NODE": 36.6499, "ARG_OF_PERICENTER": 218.708, "MEAN_ANOMALY": 141.0706, "EPHEMERIS_TYPE": 0, "CLASSIFICATION_TYPE": "U", "NORAD_CAT_ID": 31542, "ELEMENT_SET_NO": 999, "REV_AT_EPOCH": 95881, "BSTAR": 0.0020971405, "MEAN_MOTION_DOT": 4.714e-05, "MEAN_MOTION_DDOT": 0}, "tle": {"line1": "1 31542U 99025BYH 25342.60761507  .00004714  00000+0  20971-2 0  9994", "line2": "2 31542  98.7313  36.6499 0047288 218.7080 141.0706 14.22760731958813"}}, "geometry": {"type": "Point", "coordinates": [-131.33352333451782, 50.4811920645027]}}, {"type": "Feature", "properties": {"norad_id": 31544, "name": "FENGYUN 1C DEB", "group": "fengyun-1c-debris", "lat": -53.03427207736857, "lon": 47.1150759476778, "alt_km": 831.5102348503297, "timestamp": "2025-12-09T21:34:11.691031+00:00", "meta": {"OBJECT_NAME": "FENGYUN 1C DEB", "OBJECT_ID": "1999-025BYK", "EPOCH": "2025-12-09T09:56:19.046112", "MEAN_MOTION": 14.14322372, "ECCENTRICITY": 0.00316481, "INCLINATION": 98.8297, "RA_OF_ASC_NODE": 34.7171, "ARG_OF_PERICENTER": 278.6332, "MEAN_ANOMALY": 81.1256, "EPHEMERIS_TYPE": 0, "CLASSIFICATION_TYPE": "U", "NORAD_CAT_ID": 31544, "ELEMENT_SET_NO": 999, "REV_AT_EPOCH": 95710, "BSTAR": 0.001174357, "MEAN_MOTION_DOT": 2.211e-05, "MEAN_MOTION_DDOT": 0}, "tle": {"line1": "1 31544U 99025BYK 25343.41410933  .00002211  00000+0  11744-2 0  9998", "line2": "2 31544  98.8297  34.7171 0031648 278.6332  81.1256 14.14322372957102"}}, "geometry": {"type": "Point", "coordinates": [47.1150759476778, -53.03427207736857]}}, {"type": "Feature", "properties": {"norad_id": 31546, "name": "FENGYUN 1C DEB", "group": "fengyun-1c-debris", "lat": 56.35296615005483, "lon": -113.7858080985854, "alt_km": 745.0873123559477, "timestamp": "2025-12-09T21:34:11.691041+00:00", "meta": {"OBJECT_NAME": "FENGYUN 1C DEB", "OBJECT_ID": "1999-025BYM", "EPOCH": "2025-12-09T10:47:47.985216", "MEAN_MOTION": 14.13091406, "ECCENTRICITY": 0.01466251, "INCLINATION": 98.2443, "RA_OF_ASC_NODE": 53.2189, "ARG_OF_PERICENTER": 146.2501, "MEAN_ANOMALY": 214.8114, "EPHEMERIS_TYPE": 0, "CLASSIFICATION_TYPE": "U", "NORAD_CAT_ID": 31546, "ELEMENT_SET_NO": 999, "REV_AT_EPOCH": 94742, "BSTAR": 0.0026865493, "MEAN_MOTION_DOT": 5.524e-05, "MEAN_MOTION_DDOT": 0}, "tle": {"line1": "1 31546U 99025BYM 25343.44986094  .00005524  00000+0  26865-2 0  9999", "line2": "2 31546  98.2443  53.2189 0146625 146.2501 214.8114 14.13091406947428"}}, "geometry": {"type": "Point", "coordinates": [-113.7858080985854, 56.35296615005483]}}, {"type": "Feature", "properties": {"norad_id": 31547, "name": "FENGYUN 1C DEB", "group": "fengyun-1c-debris", "lat": 28.810275828499332, "lon": -147.37025232471663, "alt_km": 826.7279780633908, "timestamp": "2025-12-09T21:34:11.691053+00:00", "meta": {"OBJECT_NAME": "FENGYUN 1C DEB", "OBJECT_ID": "1999-025BYN", "EPOCH": "2025-12-09T09:02:48.494688", "MEAN_MOTION": 14.23103077, "ECCENTRICITY": 0.00537834, "INCLINATION": 99.0872, "RA_OF_ASC_NODE": 27.0415, "ARG_OF_PERICENTER": 262.539, "MEAN_ANOMALY": 96.9674, "EPHEMERIS_TYPE": 0, "CLASSIFICATION_TYPE": "U", "NORAD_CAT_ID": 31547, "ELEMENT_SET_NO": 999, "REV_AT_EPOCH": 63969, "BSTAR": 0.0021137662, "MEAN_MOTION_DOT": 4.797e-05, "MEAN_MOTION_DDOT": 0}, "tle": {"line1": "1 31547U 99025BYN 25343.37695017  .00004797  00000+0  21138-2 0  9993", "line2": "2 31547  99.0872  27.0415 0053783 262.5390  96.9674 14.23103077639691"}}, "geometry": {"type": "Point", "coordinates": [-147.37025232471663, 28.810275828499332]}}, {"type": "Feature", "properties": {"norad_id": 31550, "name": "FENGYUN 1C DEB", "group": "fengyun-1c-debris", "lat": 27.53912354639349, "lon": 167.81014698813001, "alt_km": 841.3737650009316, "timestamp": "2025-12-09T21:34:11.691349+00:00", "meta": {"OBJECT_NAME": "FENGYUN 1C DEB", "OBJECT_ID": "1999-025BYR", "EPOCH": "2025-12-08T18:10:11.266176", "MEAN_MOTION": 14.40173204, "ECCENTRICITY": 0.01902168, "INCLINATION": 98.3115, "RA_OF_ASC_NODE": 342.3294, "ARG_OF_PERICENTER": 284.9063, "MEAN_ANOMALY": 73.1133, "EPHEMERIS_TYPE": 0, "CLASSIFICATION_TYPE": "U", "NORAD_CAT_ID": 31550, "ELEMENT_SET_NO": 999, "REV_AT_EPOCH": 65397, "BSTAR": 0.0013773158, "MEAN_MOTION_DOT": 5.342e-05, "MEAN_MOTION_DDOT": 0}, "tle": {"line1": "1 31550U 99025BYR 25342.75707484  .00005342  00000+0  13773-2 0  9993", "line2": "2 31550  98.3115 342.3294 0190216 284.9063  73.1133 14.40173204653975"}}, "geometry": {"type": "Point", "coordinates": [167.81014698813001, 27.53912354639349]}}, {"type": "Feature", "properties": {"norad_id": 31552, "name": "FENGYUN 1C DEB", "group": "fengyun-1c-debris", "lat": 68.67170458492329, "lon": 82.84117946321034, "alt_km": 686.9320872385606, "timestamp": "2025-12-09T21:34:11.691361+00:00", "meta": {"OBJECT_NAME": "FENGYUN 1C DEB", "OBJECT_ID": "1999-025BYT", "EPOCH": "2025-12-08T07:02:34.816992", "MEAN_MOTION": 14.4554573, "ECCENTRICITY": 0.00857548, "INCLINATION": 98.6225, "RA_OF_ASC_NODE": 104.079, "ARG_OF_PERICENTER": 34.5602, "MEAN_ANOMALY": 326.1122, "EPHEMERIS_TYPE": 0, "CLASSIFICATION_TYPE": "U", "NORAD_CAT_ID": 31552, "ELEMENT_SET_NO": 999, "REV_AT_EPOCH": 95812, "BSTAR": 0.0034430126, "MEAN_MOTION_DOT": 0.00012687, "MEAN_MOTION_DDOT": 0}, "tle": {"line1": "1 31552U 99025BYT 25342.29345853  .00012687  00000+0  34430-2 0  9995", "line2": "2 31552  98.6225 104.0790 0085754  34.5602 326.1122 14.45545730958120"}}, "geometry": {"type": "Point", "coordinates": [82.84117946321034, 68.67170458492329]}}, {"type": "Feature", "properties": {"norad_id": 31553, "name": "FENGYUN 1C DEB", "group": "fengyun-1c-debris", "lat": 42.293549854237384, "lon": -133.15477768404725, "alt_km": 768.2020744710944, "timestamp": "2025-12-09T21:34:11.691372+00:00", "meta": {"OBJECT_NAME": "FENGYUN 1C DEB", "OBJECT_ID": "1999-025BYU", "EPOCH": "2025-12-09T02:33:47.592576", "MEAN_MOTION": 14.30107061, "ECCENTRICITY": 0.00306299, "INCLINATION": 99.0024, "RA_OF_ASC_NODE": 37.7345, "ARG_OF_PERICENTER": 112.6008, "MEAN_ANOMALY": 269.2597, "EPHEMERIS_TYPE": 0, "CLASSIFICATION_TYPE": "U", "NORAD_CAT_ID": 31553, "ELEMENT_SET_NO": 999, "REV_AT_EPOCH": 95858, "BSTAR": 0.0019990997, "MEAN_MOTION_DOT": 5.151e-05, "MEAN_MOTION_DDOT": 0}, "tle": {"line1": "1 31553U 99025BYU 25343.10680084  .00005151  00000+0  19991-2 0  9998", "line2": "2 31553  99.0024  37.7345 0030629 112.6008 269.2597 14.30107061958588"}}, "geometry": {"type": "Point", "coordinates": [-133.15477768404725, 42.293549854237384]}}]}